start=new Date('2022-04-10T00:00:00.000Z').valueOf();
sats=[{"COUNTRY_CODE":"US","PERIOD":"95.592","OBJECT_NAME":"STARLINK-1247","CENTER_NAME":"EARTH","TLE_LINE2":"2 45236  53.0540 305.4096 0001906  48.8003 311.3151 15.06396240119883","PERIAPSIS":"545.905","LAUNCH_DATE":"2020-02-17","TIME_SYSTEM":"UTC","RCS_SIZE":"LARGE","EPHEMERIS_TYPE":"0","NORAD_CAT_ID":"45236","SITE":"AFETR","BSTAR":"-0.00006902500000","MEAN_ELEMENT_THEORY":"SGP4","MEAN_MOTION_DOT":"-0.00001310","OBJECT_TYPE":"PAYLOAD","ARG_OF_PERICENTER":"48.8003","APOAPSIS":"548.545","EPOCH":"2022-04-09T20:23:47.006304","REV_AT_EPOCH":"11988","TLE_LINE1":"1 45236U 20012BL  22099.84984961 -.00001310  00000-0 -69025-4 0  9999","REF_FRAME":"TEME","INCLINATION":"53.0540","DECAY_DATE":null,"GP_ID":"200860117","ECCENTRICITY":"0.00019060","FILE":"3395351","ELEMENT_SET_NO":"999","MEAN_ANOMALY":"311.3151","MEAN_MOTION":"15.06396240","RA_OF_ASC_NODE":"305.4096","OBJECT_ID":"2020-012BL","MEAN_MOTION_DDOT":"0.0000000000000","CLASSIFICATION_TYPE":"U","SEMIMAJOR_AXIS":"6925.360"},{"PERIOD":"95.593","COUNTRY_CODE":"US","LAUNCH_DATE":"2020-02-17","PERIAPSIS":"546.039","TLE_LINE2":"2 45237  53.0533 305.3334 0001782  47.9752 312.1389 15.06380556119899","CENTER_NAME":"EARTH","OBJECT_NAME":"STARLINK-1270","MEAN_ELEMENT_THEORY":"SGP4","BSTAR":"-0.00001497400000","SITE":"AFETR","EPHEMERIS_TYPE":"0","NORAD_CAT_ID":"45237","RCS_SIZE":"LARGE","TIME_SYSTEM":"UTC","ARG_OF_PERICENTER":"47.9752","OBJECT_TYPE":"PAYLOAD","MEAN_MOTION_DOT":"-0.00000504","REV_AT_EPOCH":"11989","EPOCH":"2022-04-09T20:55:38.834400","APOAPSIS":"548.507","GP_ID":"200860859","ECCENTRICITY":"0.00017820","DECAY_DATE":null,"TLE_LINE1":"1 45237U 20012BM  22099.87197725 -.00000504  00000-0 -14974-4 0  9994","REF_FRAME":"TEME","INCLINATION":"53.0533","OBJECT_ID":"2020-012BM","RA_OF_ASC_NODE":"305.3334","MEAN_ANOMALY":"312.1389","FILE":"3395351","ELEMENT_SET_NO":"999","MEAN_MOTION":"15.06380556","SEMIMAJOR_AXIS":"6925.408","MEAN_MOTION_DDOT":"0.0000000000000","CLASSIFICATION_TYPE":"U"},{"COUNTRY_CODE":"US","PERIOD":"95.592","OBJECT_NAME":"STARLINK-1279","LAUNCH_DATE":"2020-03-18","PERIAPSIS":"546.188","TLE_LINE2":"2 45360  53.0555  76.3986 0001478  63.3905 296.7235 15.06400571114591","CENTER_NAME":"EARTH","NORAD_CAT_ID":"45360","EPHEMERIS_TYPE":"0","RCS_SIZE":"LARGE","TIME_SYSTEM":"UTC","MEAN_ELEMENT_THEORY":"SGP4","BSTAR":"0.00005852000000","SITE":"AFETR","OBJECT_TYPE":"PAYLOAD","MEAN_MOTION_DOT":"0.00000590","ARG_OF_PERICENTER":"63.3905","APOAPSIS":"548.235","REV_AT_EPOCH":"11459","EPOCH":"2022-04-09T15:09:17.504640","REF_FRAME":"TEME","TLE_LINE1":"1 45360U 20019A   22099.63145260  .00000590  00000-0  58520-4 0  9997","INCLINATION":"53.0555","GP_ID":"200859877","ECCENTRICITY":"0.00014780","DECAY_DATE":null,"RA_OF_ASC_NODE":"76.3986","OBJECT_ID":"2020-019A","FILE":"3395351","ELEMENT_SET_NO":"999","MEAN_MOTION":"15.06400571","MEAN_ANOMALY":"296.7235","MEAN_MOTION_DDOT":"0.0000000000000","CLASSIFICATION_TYPE":"U","SEMIMAJOR_AXIS":"6925.347"},{"OBJECT_NAME":"STARLINK-1301","LAUNCH_DATE":"2020-03-18","TLE_LINE2":"2 45361  53.0548  86.1545 0001579  62.1684 297.9465 15.06398050114470","PERIAPSIS":"546.126","CENTER_NAME":"EARTH","COUNTRY_CODE":"US","PERIOD":"95.592","OBJECT_TYPE":"PAYLOAD","MEAN_MOTION_DOT":"0.00000630","ARG_OF_PERICENTER":"62.1684","NORAD_CAT_ID":"45361","EPHEMERIS_TYPE":"0","TIME_SYSTEM":"UTC","RCS_SIZE":"LARGE","MEAN_ELEMENT_THEORY":"SGP4","BSTAR":"0.00006121600000","SITE":"AFETR","TLE_LINE1":"1 45361U 20019B   22099.68582343  .00000630  00000-0  61216-4 0  9991","REF_FRAME":"TEME","INCLINATION":"53.0548","GP_ID":"200860630","ECCENTRICITY":"0.00015790","DECAY_DATE":null,"APOAPSIS":"548.313","REV_AT_EPOCH":"11447","EPOCH":"2022-04-09T16:27:35.144352","MEAN_MOTION_DDOT":"0.0000000000000","CLASSIFICATION_TYPE":"U","SEMIMAJOR_AXIS":"6925.355","RA_OF_ASC_NODE":"86.1545","OBJECT_ID":"2020-019B","ELEMENT_SET_NO":"999","FILE":"3395351","MEAN_MOTION":"15.06398050","MEAN_ANOMALY":"297.9465"},{"ELEMENT_SET_NO":"999","FILE":"3395351","MEAN_ANOMALY":"303.0378","MEAN_MOTION":"15.06401705","OBJECT_ID":"2020-019C","RA_OF_ASC_NODE":"105.9455","SEMIMAJOR_AXIS":"6925.343","MEAN_MOTION_DDOT":"0.0000000000000","CLASSIFICATION_TYPE":"U","EPOCH":"2022-04-09T17:33:56.194560","REV_AT_EPOCH":"11419","APOAPSIS":"548.389","DECAY_DATE":null,"GP_ID":"200861372","ECCENTRICITY":"0.00017050","TLE_LINE1":"1 45362U 20019C   22099.73190040  .00001397  00000-0  11265-3 0  9996","REF_FRAME":"TEME","INCLINATION":"53.0542","SITE":"AFETR","MEAN_ELEMENT_THEORY":"SGP4","BSTAR":"0.00011265000000","TIME_SYSTEM":"UTC","RCS_SIZE":"LARGE","NORAD_CAT_ID":"45362","EPHEMERIS_TYPE":"0","ARG_OF_PERICENTER":"57.0775","OBJECT_TYPE":"PAYLOAD","MEAN_MOTION_DOT":"0.00001397","PERIOD":"95.592","COUNTRY_CODE":"US","PERIAPSIS":"546.028","TLE_LINE2":"2 45362  53.0542 105.9455 0001705  57.0775 303.0378 15.06401705114193","CENTER_NAME":"EARTH","LAUNCH_DATE":"2020-03-18","OBJECT_NAME":"STARLINK-1306"},{"ELEMENT_SET_NO":"999","FILE":"3395351","MEAN_ANOMALY":"299.1448","MEAN_MOTION":"15.06383118","RA_OF_ASC_NODE":"76.4209","OBJECT_ID":"2020-019E","MEAN_MOTION_DDOT":"0.0000000000000","CLASSIFICATION_TYPE":"U","SEMIMAJOR_AXIS":"6925.400","APOAPSIS":"548.533","EPOCH":"2022-04-09T15:03:59.096448","REV_AT_EPOCH":"11459","TLE_LINE1":"1 45364U 20019E   22099.62776732  .00001752  00000-0  13654-3 0  9993","INCLINATION":"53.0543","REF_FRAME":"TEME","DECAY_DATE":null,"ECCENTRICITY":"0.00018300","GP_ID":"200861602","RCS_SIZE":"LARGE","TIME_SYSTEM":"UTC","EPHEMERIS_TYPE":"0","NORAD_CAT_ID":"45364","SITE":"AFETR","MEAN_ELEMENT_THEORY":"SGP4","BSTAR":"0.00013654000000","OBJECT_TYPE":"PAYLOAD","MEAN_MOTION_DOT":"0.00001752","ARG_OF_PERICENTER":"60.9725","COUNTRY_CODE":"US","PERIOD":"95.593","OBJECT_NAME":"STARLINK-1313","TLE_LINE2":"2 45364  53.0543  76.4209 0001830  60.9725 299.1448 15.06383118114596","PERIAPSIS":"545.998","CENTER_NAME":"EARTH","LAUNCH_DATE":"2020-03-18"},{"TLE_LINE1":"1 45365U 20019F   22099.66454992  .00003908  00000-0  28721-3 0  9995","REF_FRAME":"TEME","INCLINATION":"52.9994","DECAY_DATE":null,"ECCENTRICITY":"0.00014800","GP_ID":"200860377","APOAPSIS":"550.744","EPOCH":"2022-04-09T15:56:57.113088","REV_AT_EPOCH":"11442","MEAN_MOTION_DDOT":"0.0000000000000","CLASSIFICATION_TYPE":"U","SEMIMAJOR_AXIS":"6927.854","MEAN_MOTION":"15.05582902","FILE":"3395351","ELEMENT_SET_NO":"999","MEAN_ANOMALY":"300.8358","OBJECT_ID":"2020-019F","RA_OF_ASC_NODE":"86.2643","OBJECT_NAME":"STARLINK-1317","PERIAPSIS":"548.694","TLE_LINE2":"2 45365  52.9994  86.2643 0001480  59.2776 300.8358 15.05582902114427","CENTER_NAME":"EARTH","LAUNCH_DATE":"2020-03-18","COUNTRY_CODE":"US","PERIOD":"95.644","OBJECT_TYPE":"PAYLOAD","MEAN_MOTION_DOT":"0.00003908","ARG_OF_PERICENTER":"59.2776","RCS_SIZE":"LARGE","TIME_SYSTEM":"UTC","EPHEMERIS_TYPE":"0","NORAD_CAT_ID":"45365","SITE":"AFETR","MEAN_ELEMENT_THEORY":"SGP4","BSTAR":"0.00028721000000"},{"APOAPSIS":"548.419","REV_AT_EPOCH":"11420","EPOCH":"2022-04-09T17:12:42.442560","TLE_LINE1":"1 45366U 20019G   22099.71715790 -.00001312  00000-0 -69205-4 0  9990","REF_FRAME":"TEME","INCLINATION":"53.0534","GP_ID":"200860131","ECCENTRICITY":"0.00017210","DECAY_DATE":null,"OBJECT_ID":"2020-019G","RA_OF_ASC_NODE":"106.0047","FILE":"3395351","MEAN_MOTION":"15.06395529","ELEMENT_SET_NO":"999","MEAN_ANOMALY":"300.1455","CLASSIFICATION_TYPE":"U","MEAN_MOTION_DDOT":"0.0000000000000","SEMIMAJOR_AXIS":"6925.362","COUNTRY_CODE":"US","PERIOD":"95.592","OBJECT_NAME":"STARLINK-1262","LAUNCH_DATE":"2020-03-18","CENTER_NAME":"EARTH","TLE_LINE2":"2 45366  53.0534 106.0047 0001721  59.9704 300.1455 15.06395529114200","PERIAPSIS":"546.035","NORAD_CAT_ID":"45366","EPHEMERIS_TYPE":"0","RCS_SIZE":"LARGE","TIME_SYSTEM":"UTC","BSTAR":"-0.00006920500000","MEAN_ELEMENT_THEORY":"SGP4","SITE":"AFETR","MEAN_MOTION_DOT":"-0.00001312","OBJECT_TYPE":"PAYLOAD","ARG_OF_PERICENTER":"59.9704"},{"OBJECT_NAME":"STARLINK-1273","PERIAPSIS":"546.135","TLE_LINE2":"2 45367  53.0529 105.9182 0001566  64.8070 295.3081 15.06397924114202","CENTER_NAME":"EARTH","LAUNCH_DATE":"2020-03-18","COUNTRY_CODE":"US","PERIOD":"95.592","OBJECT_TYPE":"PAYLOAD","MEAN_MOTION_DOT":"0.00001737","ARG_OF_PERICENTER":"64.8070","RCS_SIZE":"LARGE","TIME_SYSTEM":"UTC","NORAD_CAT_ID":"45367","EPHEMERIS_TYPE":"0","SITE":"AFETR","MEAN_ELEMENT_THEORY":"SGP4","BSTAR":"0.00013548000000","TLE_LINE1":"1 45367U 20019H   22099.73927290  .00001737  00000-0  13548-3 0  9990","INCLINATION":"53.0529","REF_FRAME":"TEME","DECAY_DATE":null,"GP_ID":"200860873","ECCENTRICITY":"0.00015660","APOAPSIS":"548.304","EPOCH":"2022-04-09T17:44:33.178560","REV_AT_EPOCH":"11420","MEAN_MOTION_DDOT":"0.0000000000000","CLASSIFICATION_TYPE":"U","SEMIMAJOR_AXIS":"6925.355","FILE":"3395351","ELEMENT_SET_NO":"999","MEAN_ANOMALY":"295.3081","MEAN_MOTION":"15.06397924","OBJECT_ID":"2020-019H","RA_OF_ASC_NODE":"105.9182"},{"OBJECT_TYPE":"PAYLOAD","MEAN_MOTION_DOT":"-0.00001478","ARG_OF_PERICENTER":"75.0902","NORAD_CAT_ID":"45368","EPHEMERIS_TYPE":"0","TIME_SYSTEM":"UTC","RCS_SIZE":"LARGE","MEAN_ELEMENT_THEORY":"SGP4","BSTAR":"-0.00008038600000","SITE":"AFETR","OBJECT_NAME":"STARLINK-1276","LAUNCH_DATE":"2020-03-18","TLE_LINE2":"2 45368  53.0550 106.0351 0001392  75.0902 285.0241 15.06397245114202","PERIAPSIS":"546.258","CENTER_NAME":"EARTH","COUNTRY_CODE":"US","PERIOD":"95.592","CLASSIFICATION_TYPE":"U","MEAN_MOTION_DDOT":"0.0000000000000","SEMIMAJOR_AXIS":"6925.357","OBJECT_ID":"2020-019J","RA_OF_ASC_NODE":"106.0351","ELEMENT_SET_NO":"999","FILE":"3395351","MEAN_MOTION":"15.06397245","MEAN_ANOMALY":"285.0241","INCLINATION":"53.0550","TLE_LINE1":"1 45368U 20019J   22099.70978521 -.00001478  00000-0 -80386-4 0  9990","REF_FRAME":"TEME","GP_ID":"200861103","ECCENTRICITY":"0.00013920","DECAY_DATE":null,"APOAPSIS":"548.186","REV_AT_EPOCH":"11420","EPOCH":"2022-04-09T17:02:05.442144"}];
